2023-104A               
1 57424U 23104A   26065.78279804  .00015492  00000+0  48200-3 0  9993
2 57424  97.2792 135.5625 0009333 122.1915 238.0234 15.33350758146346
STARLINK-30493          
1 58116U 23161V   26068.52296612  .00000245  00000+0  20415-4 0  9995
2 58116  53.1606 166.4794 0001131  81.1879 278.9250 15.30192702134394
